NORAD_CAT_ID,OBJECT_NAME,OBJECT_TYPE,EPOCH,MEAN_MOTION,ECCENTRICITY,INCLINATION,RA_OF_ASC_NODE,ARG_OF_PERICENTER,MEAN_ANOMALY,BSTAR,MEAN_MOTION_DOT,MEAN_MOTION_DDOT,TLE_LINE0,TLE_LINE1,TLE_LINE2,SEMIMAJOR_AXIS,PERIOD,APOGEE,PERIGEE,DECAYED
55675.0,STARLINK-5232,PAYLOAD,2023-12-02 18:16:35,14.98349111,0.0002716,70.0018,91.7711,277.5421,82.5429,0.00028582,3.321e-05,0.0,0 STARLINK-5232,1 55675U 23021AZ  23336.76152664  .00003321  00000-0  28582-3 0  9997,2 55675  70.0018  91.7711 0002716 277.5421  82.5429 14.98349111 45275,6950.134,96.106,573.886,570.111,0.0
55675.0,STARLINK-5232,PAYLOAD,2023-12-03 11:54:08,14.98306925,0.0003306,69.9984,89.9168,269.0565,91.0216,-0.00026917,-3.301e-05,0.0,0 STARLINK-5232,1 55675U 23021AZ  23337.49592751 -.00003301  00000-0 -26917-3 0  9993,2 55675  69.9984  89.9168 0003306 269.0565  91.0216 14.98306925 45084,6950.264,96.108,574.427,569.831,0.0
55675.0,STARLINK-5232,PAYLOAD,2023-12-03 13:30:16,14.98299742,0.0003009,70.0005,89.7516,266.7377,93.3438,-0.00029986,-3.666e-05,0.0,0 STARLINK-5232,1 55675U 23021AZ  23337.56269371 -.00003666  00000-0 -29986-3 0  9993,2 55675  70.0005  89.7516 0003009 266.7377  93.3438 14.98299742 45394,6950.286,96.109,574.243,570.06,0.0
55675.0,STARLINK-5232,PAYLOAD,2023-12-04 11:56:08,14.9832686,0.0003149,70.0007,87.3954,271.57,88.5099,-8.8573e-05,-1.15e-05,0.0,0 STARLINK-5232,1 55675U 23021AZ  23338.49732032 -.00001150  00000-0 -88573-4 0  9999,2 55675  70.0007  87.3954 0003149 271.5700  88.5099 14.98326860 45239,6950.203,96.107,574.256,569.879,0.0
55675.0,STARLINK-5232,PAYLOAD,2023-12-04 13:32:16,14.98326929,0.000298,70.0009,87.2271,269.0409,91.0409,-8.8995e-05,-1.155e-05,0.0,0 STARLINK-5232,1 55675U 23021AZ  23338.56408069 -.00001155  00000-0 -88995-4 0  9990,2 55675  70.0009  87.2271 0002980 269.0409  91.0409 14.98326929 45546,6950.202,96.107,574.139,569.996,0.0
55675.0,STARLINK-5232,PAYLOAD,2023-12-05 11:58:08,14.98321387,0.0002648,70.003,84.8737,261.2582,98.8277,0.00047362,5.561e-05,0.0,0 STARLINK-5232,1 55675U 23021AZ  23339.49871367  .00005561  00000-0  47362-3 0  9993,2 55675  70.0030  84.8737 0002648 261.2582  98.8277 14.98321387 45380,6950.22,96.108,573.925,570.244,0.0
55675.0,STARLINK-5232,PAYLOAD,2023-12-05 13:34:16,14.983208,0.0002598,70.0033,84.7054,255.4871,104.6,0.00049256,5.788e-05,0.0,0 STARLINK-5232,1 55675U 23021AZ  23339.56547374  .00005788  00000-0  49256-3 0  9994,2 55675  70.0033  84.7054 0002598 255.4871 104.6000 14.98320800 45697,6950.221,96.108,573.892,570.281,0.0
55675.0,STARLINK-5232,PAYLOAD,2023-12-05 16:46:32,14.98324943,0.0002676,70.0019,84.3667,269.9182,90.167,0.00051075,6.006e-05,0.0,0 STARLINK-5232,1 55675U 23021AZ  23339.69899299  .00006006  00000-0  51075-3 0  9990,2 55675  70.0019  84.3667 0002676 269.9182  90.1670 14.98324943 45716,6950.209,96.107,573.933,570.214,0.0
55675.0,STARLINK-5232,PAYLOAD,2023-12-06 12:00:09,14.98336088,0.0002873,70.0017,82.3467,273.7033,86.3797,7.3838e-05,7.88e-06,0.0,0 STARLINK-5232,1 55675U 23021AZ  23340.50011424  .00000788  00000-0  73838-4 0  9991,2 55675  70.0017  82.3467 0002873 273.7033  86.3797 14.98336088 45537,6950.174,96.107,574.036,570.042,0.0
55675.0,STARLINK-5232,PAYLOAD,2023-12-07 12:02:07,14.98369135,0.000263,70.0039,79.8255,227.8167,132.2769,0.00027459,3.188e-05,0.0,0 STARLINK-5232,1 55675U 23021AZ  23341.50148049  .00003188  00000-0  27459-3 0  9990,2 55675  70.0039  79.8255 0002630 227.8167 132.2769 14.98369135 45681,6950.072,96.104,573.765,570.109,0.0
55675.0,STARLINK-5232,PAYLOAD,2023-12-07 16:50:35,14.9833017,0.0003252,70.0006,79.315,283.7302,76.3495,-0.00018049,-2.246e-05,0.0,0 STARLINK-5232,1 55675U 23021AZ  23341.70179631 -.00002246  00000-0 -18049-3 0  9994,2 55675  70.0006  79.3150 0003252 283.7302  76.3495 14.98330170 45712,6950.192,96.107,574.318,569.797,0.0
55675.0,STARLINK-5232,PAYLOAD,2023-12-08 12:04:11,14.98325167,0.0002066,70.0046,77.3006,253.1571,106.9361,-6.0129e-05,-8.1e-06,0.0,0 STARLINK-5232,1 55675U 23021AZ  23342.50291214 -.00000810  00000-0 -60129-4 0  9997,2 55675  70.0046  77.3006 0002066 253.1571 106.9361 14.98325167 46134,6950.208,96.107,573.509,570.637,0.0
55675.0,STARLINK-5232,PAYLOAD,2023-12-08 16:52:35,14.9833421,0.0002354,70.0047,76.7959,299.0003,61.092,6.0136e-05,6.25e-06,0.0,0 STARLINK-5232,1 55675U 23021AZ  23342.70318771  .00000625  00000-0  60136-4 0  9997,2 55675  70.0047  76.7959 0002354 299.0003  61.0920 14.98334210 45864,6950.18,96.107,573.681,570.409,0.0
55675.0,STARLINK-5232,PAYLOAD,2023-12-09 12:06:11,14.9833329,0.0003297,70.0005,74.7719,278.3694,81.7091,5.7474e-05,5.93e-06,0.0,0 STARLINK-5232,1 55675U 23021AZ  23343.50430399  .00000593  00000-0  57474-4 0  9992,2 55675  70.0005  74.7719 0003297 278.3694  81.7091 14.98333290 46285,6950.183,96.107,574.339,569.756,0.0
55675.0,STARLINK-5232,PAYLOAD,2023-12-10 12:08:12,14.98330829,0.0002833,70.0019,72.2486,273.9235,86.1601,4.707e-05,4.69e-06,0.0,0 STARLINK-5232,1 55675U 23021AZ  23344.50570389  .00000469  00000-0  47070-4 0  9990,2 55675  70.0019  72.2486 0002833 273.9235  86.1601 14.98330829 46136,6950.19,96.107,574.024,570.086,0.0
55675.0,STARLINK-5232,PAYLOAD,2023-12-10 13:44:20,14.98335945,0.0002834,70.0014,72.0798,275.0216,85.0619,-0.00010369,-1.33e-05,0.0,0 STARLINK-5232,1 55675U 23021AZ  23344.57246491 -.00001330  00000-0 -10369-3 0  9991,2 55675  70.0014  72.0798 0002834 275.0216  85.0619 14.98335945 46443,6950.175,96.107,574.009,570.07,0.0
55675.0,STARLINK-5232,PAYLOAD,2023-12-10 15:20:28,14.98337377,0.0002978,70.0012,71.9112,278.4254,81.6567,-0.00012901,-1.632e-05,0.0,0 STARLINK-5232,1 55675U 23021AZ  23344.63922452 -.00001632  00000-0 -12901-3 0  9995,2 55675  70.0012  71.9112 0002978 278.4254  81.6567 14.98337377 46453,6950.17,96.107,574.105,569.965,0.0
55675.0,STARLINK-5232,PAYLOAD,2023-12-11 12:10:13,14.98332638,0.0003506,70.0008,69.723,282.8256,77.2511,1.2422e-05,5.5e-07,0.0,0 STARLINK-5232,1 55675U 23021AZ  23345.50710318  .00000055  00000-0  12422-4 0  9993,2 55675  70.0008  69.7230 0003506 282.8256  77.2511 14.98332638 46289,6950.185,96.107,574.486,569.613,0.0
55675.0,STARLINK-5232,PAYLOAD,2023-12-11 13:46:21,14.98333192,0.0003471,70.0008,69.5548,282.2445,77.8325,1.8497e-05,1.28e-06,0.0,0 STARLINK-5232,1 55675U 23021AZ  23345.57386259  .00000128  00000-0  18497-4 0  9992,2 55675  70.0008  69.5548 0003471 282.2445  77.8325 14.98333192 46593,6950.183,96.107,574.46,569.636,0.0
55675.0,STARLINK-5232,PAYLOAD,2023-12-11 15:22:29,14.98332726,0.0003549,70.0007,69.3861,284.0357,76.0407,1.4651e-05,8.2e-07,0.0,0 STARLINK-5232,1 55675U 23021AZ  23345.64062298  .00000082  00000-0  14651-4 0  9991,2 55675  70.0007  69.3861 0003549 284.0357  76.0407 14.98332726 46602,6950.184,96.107,574.516,569.583,0.0
55675.0,STARLINK-5232,PAYLOAD,2023-12-12 13:48:22,14.98330305,0.00035,70.0007,67.0298,281.4136,78.663,2.7421e-05,2.34e-06,0.0,0 STARLINK-5232,1 55675U 23021AZ  23346.57526301  .00000234  00000-0  27421-4 0  9992,2 55675  70.0007  67.0298 0003500 281.4136  78.6630 14.98330305 46746,6950.192,96.107,574.49,569.624,0.0
55675.0,STARLINK-5232,PAYLOAD,2023-12-12 15:24:30,14.98330262,0.0003532,70.0006,66.8613,282.1236,77.9527,2.5077e-05,2.06e-06,0.0,0 STARLINK-5232,1 55675U 23021AZ  23346.64202314  .00000206  00000-0  25077-4 0  9999,2 55675  70.0006  66.8613 0003532 282.1236  77.9527 14.98330262 46454,6950.192,96.107,574.512,569.602,0.0
55675.0,STARLINK-5232,PAYLOAD,2023-12-13 10:38:06,14.98338068,0.0003747,70.0002,64.8404,284.3451,75.7292,6.9439e-05,7.36e-06,0.0,0 STARLINK-5232,1 55675U 23021AZ  23347.44313464  .00000736  00000-0  69439-4 0  9995,2 55675  70.0002  64.8404 0003747 284.3451  75.7292 14.98338068 46577,6950.168,96.106,574.637,569.429,0.0
55675.0,STARLINK-5232,PAYLOAD,2023-12-13 13:50:22,14.98339586,0.0003668,70.0003,64.504,283.1515,76.9235,8.7412e-05,9.5e-06,0.0,0 STARLINK-5232,1 55675U 23021AZ  23347.57665243  .00000950  00000-0  87412-4 0  9993,2 55675  70.0003  64.5040 0003668 283.1515  76.9235 14.98339586 46892,6950.163,96.106,574.578,569.479,0.0
55675.0,STARLINK-5232,PAYLOAD,2023-12-13 15:26:30,14.98339706,0.0003681,70.0003,64.3356,283.4369,76.638,8.7439e-05,9.51e-06,0.0,0 STARLINK-5232,1 55675U 23021AZ  23347.64341200  .00000951  00000-0  87439-4 0  9995,2 55675  70.0003  64.3356 0003681 283.4369  76.6380 14.98339706 46909,6950.163,96.106,574.586,569.47,0.0
55675.0,STARLINK-5232,PAYLOAD,2023-12-14 12:16:16,14.98326128,0.0003417,70.0008,62.148,278.6561,81.4211,-1.7677e-05,-3.04e-06,0.0,0 STARLINK-5232,1 55675U 23021AZ  23348.51130213 -.00000304  00000-0 -17677-4 0  9993,2 55675  70.0008  62.1480 0003417 278.6561  81.4211 14.98326128 46737,6950.205,96.107,574.445,569.695,0.0
55675.0,STARLINK-5232,PAYLOAD,2023-12-14 13:52:24,14.983268,0.0003392,70.0008,61.9797,278.1504,81.927,-9.1884e-06,-2.03e-06,0.0,0 STARLINK-5232,1 55675U 23021AZ  23348.57806155 -.00000203  00000-0 -91884-5 0  9995,2 55675  70.0008  61.9797 0003392 278.1504  81.9270 14.98326800 47041,6950.203,96.107,574.425,569.71,0.0
55675.0,STARLINK-5232,PAYLOAD,2023-12-14 15:28:32,14.98326691,0.0003433,70.0007,61.8111,279.556,80.5211,-1.2123e-05,-2.38e-06,0.0,0 STARLINK-5232,1 55675U 23021AZ  23348.64482185 -.00000238  00000-0 -12123-4 0  9992,2 55675  70.0007  61.8111 0003433 279.5560  80.5211 14.98326691 47051,6950.203,96.107,574.454,569.682,0.0
55675.0,STARLINK-5232,PAYLOAD,2023-12-15 12:18:17,14.98330846,0.0003649,70.0003,59.6225,280.1247,79.9501,-6.2263e-05,-8.36e-06,0.0,0 STARLINK-5232,1 55675U 23021AZ  23349.51269976 -.00000836  00000-0 -62263-4 0  9994,2 55675  70.0003  59.6225 0003649 280.1247  79.9501 14.98330846 46888,6950.19,96.107,574.591,569.519,0.0
55675.0,STARLINK-5232,PAYLOAD,2023-12-15 13:54:25,14.98329682,0.0003481,70.0007,59.4543,279.9005,80.1761,-8.0599e-05,-1.055e-05,0.0,0 STARLINK-5232,1 55675U 23021AZ  23349.57946116 -.00001055  00000-0 -80599-4 0  9994,2 55675  70.0007  59.4543 0003481 279.9005  80.1761 14.98329682 47198,6950.194,96.107,574.478,569.64,0.0
